COMMENT,ORIGINATOR,NORAD_CAT_ID,OBJECT_NAME,OBJECT_TYPE,CLASSIFICATION_TYPE,INTLDES,EPOCH,EPOCH_MICROSECONDS,MEAN_MOTION,ECCENTRICITY,INCLINATION,RA_OF_ASC_NODE,ARG_OF_PERICENTER,MEAN_ANOMALY,EPHEMERIS_TYPE,ELEMENT_SET_NO,REV_AT_EPOCH,BSTAR,MEAN_MOTION_DOT,MEAN_MOTION_DDOT,FILE,TLE_LINE0,TLE_LINE1,TLE_LINE2,OBJECT_ID,OBJECT_NUMBER,SEMIMAJOR_AXIS,PERIOD,APOGEE,PERIGEE,DECAYED
"GENERATED VIA SPACETRACK.ORG API","18 SPCS","48890","SPACEBEE-104","PAYLOAD","U","21059M","2022-04-29 14:40:44","227200","15.1485727","0.0007491","97.5474","249.4579","274.2552","85.7823","0","999","4653","0.00083321","0.00015459","0","3421667","0 SPACEBEE-104","1 48890U 21059M   22119.61162300  .00015459  00000-0  83321-3 0  9994","2 48890  97.5474 249.4579 0007491 274.2552  85.7823 15.14857270 46536","2021-059M","48890","6899.549","95.058","526.582","516.245","0"
"GENERATED VIA SPACETRACK.ORG API","18 SPCS","48890","SPACEBEE-104","PAYLOAD","U","21059M","2022-04-29 21:01:12","612288","15.14867449","0.0007501","97.5474","249.7201","273.2415","86.7959","0","999","4657","0.00085686","0.00015905","0","3421985","0 SPACEBEE-104","1 48890U 21059M   22119.87584042  .00015905  00000-0  85686-3 0  9995","2 48890  97.5474 249.7201 0007501 273.2415  86.7959 15.14867449 46574","2021-059M","48890","6899.518","95.058","526.558","516.208","0"
"GENERATED VIA SPACETRACK.ORG API","18 SPCS","48890","SPACEBEE-104","PAYLOAD","U","21059M","2022-04-30 14:27:30","84192","15.14889338","0.0007552","97.5476","250.4413","270.5484","89.4882","0","999","4668","0.00080664","0.00014976","0","3422880","0 SPACEBEE-104","1 48890U 21059M   22120.60243153  .00014976  00000-0  80664-3 0  9991","2 48890  97.5476 250.4413 0007552 270.5484  89.4882 15.14889338 46680","2021-059M","48890","6899.452","95.056","526.527","516.106","0"
"GENERATED VIA SPACETRACK.ORG API","18 SPCS","48890","SPACEBEE-104","PAYLOAD","U","21059M","2022-04-30 20:47:58","50240","15.14895608","0.0007588","97.5476","250.7036","269.5185","90.5177","0","999","4672","0.00071986","0.00013358","0","3423024","0 SPACEBEE-104","1 48890U 21059M   22120.86664410  .00013358  00000-0  71986-3 0  9992","2 48890  97.5476 250.7036 0007588 269.5185  90.5177 15.14895608 46721","2021-059M","48890","6899.433","95.056","526.533","516.062","0"
"GENERATED VIA SPACETRACK.ORG API","18 SPCS","48890","SPACEBEE-104","PAYLOAD","U","21059M","2022-05-01 14:14:14","433504","15.14914089","0.0007653","97.5477","251.4246","266.7584","93.2773","0","999","4683","0.00068082","0.00012635","0","3424314","0 SPACEBEE-104","1 48890U 21059M   22121.59322261  .00012635  00000-0  68082-3 0  9998","2 48890  97.5477 251.4246 0007653 266.7584  93.2773 15.14914089 46837","2021-059M","48890","6899.376","95.055","526.521","515.961","0"
"GENERATED VIA SPACETRACK.ORG API","18 SPCS","48890","SPACEBEE-104","PAYLOAD","U","21059M","2022-05-01 20:34:42","45312","15.14919625","0.0007718","97.5477","251.6868","265.8821","94.1528","0","999","4687","0.00063105","0.00011707","0","3424759","0 SPACEBEE-104","1 48890U 21059M   22121.85743108  .00011707  00000-0  63105-3 0  9994","2 48890  97.5477 251.6868 0007718 265.8821  94.1528 15.14919625 46878","2021-059M","48890","6899.360","95.055","526.550","515.900","0"
"GENERATED VIA SPACETRACK.ORG API","18 SPCS","48890","SPACEBEE-104","PAYLOAD","U","21059M","2022-05-01 22:09:48","933792","15.14921216","0.0007725","97.5477","251.7524","265.6962","94.3387","0","999","4688","0.00063573","0.00011795","0","3424955","0 SPACEBEE-104","1 48890U 21059M   22121.92348303  .00011795  00000-0  63573-3 0  9996","2 48890  97.5477 251.7524 0007725 265.6962  94.3387 15.14921216 46885","2021-059M","48890","6899.355","95.054","526.550","515.890","0"
"GENERATED VIA SPACETRACK.ORG API","18 SPCS","48890","SPACEBEE-104","PAYLOAD","U","21059M","2022-05-02 07:40:30","156672","15.14929897","0.0007737","97.5479","252.1457","264.1782","95.8568","0","999","4694","0.00061775","0.00011462","0","3425830","0 SPACEBEE-104","1 48890U 21059M   22122.31979348  .00011462  00000-0  61775-3 0  9992","2 48890  97.5479 252.1457 0007737 264.1782  95.8568 15.14929897 46941","2021-059M","48890","6899.328","95.054","526.531","515.855","0"
"GENERATED VIA SPACETRACK.ORG API","18 SPCS","48890","SPACEBEE-104","PAYLOAD","U","21059M","2022-05-02 18:46:18","44256","15.14938649","0.0007745","97.5481","252.6046","262.5233","97.5119","0","999","4701","0.00058964","0.00010939","0","3426306","0 SPACEBEE-104","1 48890U 21059M   22122.78215329  .00010939  00000-0  58964-3 0  9999","2 48890  97.5481 252.6046 0007745 262.5233  97.5119 15.14938649 47010","2021-059M","48890","6899.302","95.053","526.510","515.823","0"
"GENERATED VIA SPACETRACK.ORG API","18 SPCS","48890","SPACEBEE-104","PAYLOAD","U","21059M","2022-05-03 07:27:12","451392","15.14948835","0.000775","97.5483","253.1292","260.7848","99.2507","0","999","4709","0.00054072","0.00010028","0","3426864","0 SPACEBEE-104","1 48890U 21059M   22123.31056078  .00010028  00000-0  54072-3 0  9998","2 48890  97.5483 253.1292 0007750 260.7848  99.2507 15.14948835 47095","2021-059M","48890","6899.271","95.053","526.483","515.789","0"
"GENERATED VIA SPACETRACK.ORG API","18 SPCS","48890","SPACEBEE-104","PAYLOAD","U","21059M","2022-05-03 13:47:39","527520","15.14954171","0.0007749","97.5484","253.3915","259.8426","100.1932","0","999","4713","0.00055025","0.00010207","0","3427159","0 SPACEBEE-104","1 48890U 21059M   22123.57476305  .00010207  00000-0  55025-3 0  9993","2 48890  97.5484 253.3915 0007749 259.8426 100.1932 15.14954171 47138","2021-059M","48890","6899.255","95.052","526.466","515.773","0"
"GENERATED VIA SPACETRACK.ORG API","18 SPCS","48890","SPACEBEE-104","PAYLOAD","U","21059M","2022-05-04 07:13:53","581440","15.1497238","0.0007718","97.5487","254.1128","257.0615","102.9755","0","999","4724","0.00067812","0.00012605","0","3428698","0 SPACEBEE-104","1 48890U 21059M   22124.30131460  .00012605  00000-0  67812-3 0  9996","2 48890  97.5487 254.1128 0007718 257.0615 102.9755 15.14972380 47249","2021-059M","48890","6899.199","95.051","526.389","515.740","0"
"GENERATED VIA SPACETRACK.ORG API","18 SPCS","48890","SPACEBEE-104","PAYLOAD","U","21059M","2022-05-04 15:09:26","978400","15.14977405","0.0007699","97.5487","254.4406","255.7632","104.2745","0","999","4729","0.00056446","0.0001048","0","3428912","0 SPACEBEE-104","1 48890U 21059M   22124.63156225  .00010480  00000-0  56446-3 0  9998","2 48890  97.5487 254.4406 0007699 255.7632 104.2745 15.14977405 47295","2021-059M","48890","6899.184","95.051","526.361","515.737","0"
"GENERATED VIA SPACETRACK.ORG API","18 SPCS","48890","SPACEBEE-104","PAYLOAD","U","21059M","2022-05-04 15:09:26","978400","15.14977405","0.0007699","97.5487","254.4406","255.7632","104.2745","0","999","4729","0.00056446","0.0001048","0","3429148","0 SPACEBEE-104","1 48890U 21059M   22124.63156225  .00010480  00000-0  56446-3 0  9998","2 48890  97.5487 254.4406 0007699 255.7632 104.2745 15.14977405 47295","2021-059M","48890","6899.184","95.051","526.361","515.737","0"
"GENERATED VIA SPACETRACK.ORG API","18 SPCS","48890","SPACEBEE-104","PAYLOAD","U","21059M","2022-05-05 08:35:39","992928","15.15005588","0.0007662","97.5489","255.1622","252.6907","107.3487","0","999","4740","0.0010817","0.00020187","0","3429927","0 SPACEBEE-104","1 48890U 21059M   22125.35810177  .00020187  00000-0  10817-2 0  9997","2 48890  97.5489 255.1622 0007662 252.6907 107.3487 15.15005588 47401","2021-059M","48890","6899.099","95.049","526.250","515.678","0"
"GENERATED VIA SPACETRACK.ORG API","18 SPCS","48890","SPACEBEE-104","PAYLOAD","U","21059M","2022-05-05 08:35:39","992928","15.15005588","0.0007662","97.5489","255.1622","252.6907","107.3487","0","999","4740","0.0010817","0.00020187","0","3430353","0 SPACEBEE-104","1 48890U 21059M   22125.35810177  .00020187  00000-0  10817-2 0  9997","2 48890  97.5489 255.1622 0007662 252.6907 107.3487 15.15005588 47401","2021-059M","48890","6899.099","95.049","526.250","515.678","0"
"GENERATED VIA SPACETRACK.ORG API","18 SPCS","48890","SPACEBEE-104","PAYLOAD","U","21059M","2022-05-05 19:41:26","212992","15.1500896","0.0007662","97.5489","255.6214","250.9119","109.1284","0","999","4747","0.00083615","0.00015581","0","3430750","0 SPACEBEE-104","1 48890U 21059M   22125.82044228  .00015581  00000-0  83615-3 0  9994","2 48890  97.5489 255.6214 0007662 250.9119 109.1284 15.15008960 47478","2021-059M","48890","6899.088","95.049","526.239","515.667","0"
"GENERATED VIA SPACETRACK.ORG API","18 SPCS","48890","SPACEBEE-104","PAYLOAD","U","21059M","2022-05-06 03:36:59","73408","15.15013595","0.0007659","97.5489","255.9492","249.1135","110.9277","0","999","4752","0.00077448","0.00014426","0","3431044","0 SPACEBEE-104","1 48890U 21059M   22126.15068372  .00014426  00000-0  77448-3 0  9991","2 48890  97.5489 255.9492 0007659 249.1135 110.9277 15.15013595 47521","2021-059M","48890","6899.074","95.049","526.223","515.655","0"
"GENERATED VIA SPACETRACK.ORG API","18 SPCS","48890","SPACEBEE-104","PAYLOAD","U","21059M","2022-05-06 08:22:18","683040","15.15022406","0.0007683","97.5488","256.1458","248.3928","111.6486","0","999","4755","0.00086212","0.00016074","0","3432208","0 SPACEBEE-104","1 48890U 21059M   22126.34882735  .00016074  00000-0  86212-3 0  9999","2 48890  97.5488 256.1458 0007683 248.3928 111.6486 15.15022406 47557","2021-059M","48890","6899.048","95.048","526.213","515.612","0"
"GENERATED VIA SPACETRACK.ORG API","18 SPCS","48890","SPACEBEE-104","PAYLOAD","U","21059M","2022-05-07 08:08:56","301792","15.15036136","0.0007802","97.5486","257.1295","244.0119","116.031","0","999","4770","0.00068644","0.00012784","0","3433535","0 SPACEBEE-104","1 48890U 21059M   22127.33954053  .00012784  00000-0  68644-3 0  9995","2 48890  97.5486 257.1295 0007802 244.0119 116.0310 15.15036136 47700","2021-059M","48890","6899.006","95.047","526.253","515.488","0"
